[{"OBJECT_NAME":"STARLINK-2713","OBJECT_ID":"2021-041BB","EPOCH":"2026-03-09T16:00:03.000096","MEAN_MOTION":15.30159001,"ECCENTRICITY":8.76e-5,"INCLINATION":53.1595,"RA_OF_ASC_NODE":113.9599,"ARG_OF_PERICENTER":75.4197,"MEAN_ANOMALY":44.6441,"EPHEMERIS_TYPE":0,"CLASSIFICATION_TYPE":"U","NORAD_CAT_ID":48602,"ELEMENT_SET_NO":999,"REV_AT_EPOCH":575,"BSTAR":0.00060221,"MEAN_MOTION_DOT":0.00017496,"MEAN_MOTION_DDOT":0},{"OBJECT_NAME":"VSP ROSE","OBJECT_ID":"2024-043AC","EPOCH":"2026-03-09T21:48:06.922944","MEAN_MOTION":15.27746075,"ECCENTRICITY":0.00099339,"INCLINATION":97.5443,"RA_OF_ASC_NODE":203.927,"ARG_OF_PERICENTER":232.2702,"MEAN_ANOMALY":127.7637,"EPHEMERIS_TYPE":0,"CLASSIFICATION_TYPE":"U","NORAD_CAT_ID":59124,"ELEMENT_SET_NO":999,"REV_AT_EPOCH":11182,"BSTAR":0.00025731354,"MEAN_MOTION_DOT":6.907e-5,"MEAN_MOTION_DDOT":0}]
